NORAD_CAT_ID,OBJECT_NAME,OBJECT_TYPE,EPOCH,MEAN_MOTION,ECCENTRICITY,INCLINATION,RA_OF_ASC_NODE,ARG_OF_PERICENTER,MEAN_ANOMALY,BSTAR,MEAN_MOTION_DOT,MEAN_MOTION_DDOT,TLE_LINE0,TLE_LINE1,TLE_LINE2,SEMIMAJOR_AXIS,PERIOD,APOGEE,PERIGEE,DECAYED
53394.0,STARLINK-4544,PAYLOAD,2023-07-25 02:38:24,15.08849935,0.0001295,53.2159,97.1243,83.2701,276.8439,0.00034207,5.162e-05,0.0,0 STARLINK-4544,1 53394U 22097G   23206.11000145  .00005162  00000-0  34207-3 0  9992,2 53394  53.2159  97.1243 0001295  83.2701 276.8439 15.08849935 54106,6917.85,95.437,540.611,538.819,0.0
53394.0,STARLINK-4544,PAYLOAD,2023-07-25 23:18:24,15.08843901,0.0001042,53.2149,93.2559,109.513,250.5975,0.00013205,1.815e-05,0.0,0 STARLINK-4544,1 53394U 22097G   23206.97112042  .00001815  00000-0  13205-3 0  9992,2 53394  53.2149  93.2559 0001042 109.5130 250.5975 15.08843901 54235,6917.868,95.437,540.454,539.013,0.0
53394.0,STARLINK-4544,PAYLOAD,2023-07-27 02:19:57,15.08855735,0.000119,53.2164,88.2038,87.3244,272.7884,0.00031305,4.7e-05,0.0,0 STARLINK-4544,1 53394U 22097G   23208.09719370  .00004700  00000-0  31305-3 0  9991,2 53394  53.2164  88.2038 0001190  87.3244 272.7884 15.08855735 53750,6917.832,95.437,540.521,538.874,0.0
53394.0,STARLINK-4544,PAYLOAD,2023-07-27 08:41:30,15.08832177,0.0001478,53.2172,87.0148,121.692,238.4216,-0.00010229,-1.915e-05,0.0,0 STARLINK-4544,1 53394U 22097G   23208.36216289 -.00001915  00000-0 -10229-3 0  9991,2 53394  53.2172  87.0148 0001478 121.6920 238.4216 15.08832177 53797,6917.904,95.438,540.792,538.747,0.0
53394.0,STARLINK-4544,PAYLOAD,2023-07-27 21:24:36,15.08827743,0.0001147,53.2166,84.6373,103.861,256.251,-0.0002082,-3.599e-05,0.0,0 STARLINK-4544,1 53394U 22097G   23208.89208586 -.00003599  00000-0 -20820-3 0  9998,2 53394  53.2166  84.6373 0001147 103.8610 256.2510 15.08827743 54524,6917.918,95.438,540.576,538.989,0.0
53394.0,STARLINK-4544,PAYLOAD,2023-07-28 10:07:41,15.088348,0.0001109,53.2165,82.2581,109.9718,250.1393,1.0218e-05,-1.25e-06,0.0,0 STARLINK-4544,1 53394U 22097G   23209.42200559 -.00000125  00000-0  10218-4 0  9992,2 53394  53.2165  82.2581 0001109 109.9718 250.1393 15.08834800 54605,6917.896,95.438,540.528,538.994,0.0
53394.0,STARLINK-4544,PAYLOAD,2023-07-28 18:04:36,15.08841062,9.94e-05,53.2158,80.7706,111.1973,248.9125,7.6615e-05,9.32e-06,0.0,0 STARLINK-4544,1 53394U 22097G   23209.75320443  .00000932  00000-0  76615-4 0  9991,2 53394  53.2158  80.7706 0000994 111.1973 248.9125 15.08841062 54008,6917.877,95.437,540.43,539.055,0.0
53394.0,STARLINK-4544,PAYLOAD,2023-07-29 00:26:09,15.0884963,9.19e-05,53.2157,79.581,116.5876,243.5211,0.00073747,0.00011471,0.0,0 STARLINK-4544,1 53394U 22097G   23210.01816539  .00011471  00000-0  73747-3 0  9990,2 53394  53.2157  79.5810 0000919 116.5876 243.5211 15.08849630 54047,6917.851,95.437,540.352,539.08,0.0
53394.0,STARLINK-4544,PAYLOAD,2023-07-29 19:30:46,15.08850835,0.0001169,53.2163,76.0144,147.2311,212.8754,0.0003695,5.599e-05,0.0,0 STARLINK-4544,1 53394U 22097G   23210.81304113  .00005599  00000-0  36950-3 0  9997,2 53394  53.2163  76.0144 0001169 147.2311 212.8754 15.08850835 54162,6917.847,95.437,540.521,538.904,0.0
53394.0,STARLINK-4544,PAYLOAD,2023-07-30 17:46:11,15.08838301,9.3e-05,53.2155,71.8481,120.3621,239.7463,8.6546e-05,1.09e-05,0.0,0 STARLINK-4544,1 53394U 22097G   23211.74040519  .00001090  00000-0  86546-4 0  9996,2 53394  53.2155  71.8481 0000930 120.3621 239.7463 15.08838301 54306,6917.886,95.438,540.394,539.107,0.0
53394.0,STARLINK-4544,PAYLOAD,2023-07-31 20:47:44,15.08844412,8.96e-05,53.216,66.7919,92.9412,267.1683,9.4339e-05,1.214e-05,0.0,0 STARLINK-4544,1 53394U 22097G   23212.86648777  .00001214  00000-0  94339-4 0  9997,2 53394  53.2160  66.7919 0000896  92.9412 267.1683 15.08844412 54471,6917.867,95.437,540.352,539.112,0.0
53394.0,STARLINK-4544,PAYLOAD,2023-08-01 19:03:08,15.08842,9.05e-05,53.2158,62.6295,83.6585,276.451,0.00015785,2.225e-05,0.0,0 STARLINK-4544,1 53394U 22097G   23213.79385103  .00002225  00000-0  15785-3 0  9991,2 53394  53.2158  62.6295 0000905  83.6585 276.4510 15.08842000 54618,6917.874,95.437,540.365,539.113,0.0
53394.0,STARLINK-4544,PAYLOAD,2023-08-02 18:53:54,15.08858276,0.0001042,53.2161,58.1689,76.7763,283.3345,-0.00015479,-2.752e-05,0.0,0 STARLINK-4544,1 53394U 22097G   23214.78744011 -.00002752  00000-0 -15479-3 0  9995,2 53394  53.2161  58.1689 0001042  76.7763 283.3345 15.08858276 54764,6917.825,95.436,540.41,538.969,0.0
53394.0,STARLINK-4544,PAYLOAD,2023-08-03 18:44:42,15.08842573,0.0001226,53.2167,53.7076,117.658,242.4537,4.5455e-05,4.36e-06,0.0,0 STARLINK-4544,1 53394U 22097G   23215.78104763  .00000436  00000-0  45455-4 0  9993,2 53394  53.2167  53.7076 0001226 117.6580 242.4537 15.08842573 54916,6917.873,95.437,540.586,538.889,0.0
53394.0,STARLINK-4544,PAYLOAD,2023-08-05 07:18:34,15.08843849,0.0001033,53.2165,46.8702,90.0028,270.1082,0.00010801,1.432e-05,0.0,0 STARLINK-4544,1 53394U 22097G   23217.30456853  .00001432  00000-0  10801-3 0  9996,2 53394  53.2165  46.8702 0001033  90.0028 270.1082 15.08843849 55146,6917.869,95.437,540.448,539.019,0.0
53394.0,STARLINK-4544,PAYLOAD,2023-08-06 07:09:22,15.08833951,9.74e-05,53.2164,42.4112,76.7379,283.3721,-4.4036e-05,-9.88e-06,0.0,0 STARLINK-4544,1 53394U 22097G   23218.29817338 -.00000988  00000-0 -44036-4 0  9999,2 53394  53.2164  42.4112 0000974  76.7379 283.3721 15.08833951 55290,6917.899,95.438,540.438,539.09,0.0
53394.0,STARLINK-4544,PAYLOAD,2023-08-06 18:17:04,15.08823963,8.12e-05,53.2163,40.3283,89.9386,270.1699,-0.00013172,-2.382e-05,0.0,0 STARLINK-4544,1 53394U 22097G   23218.76186185 -.00002382  00000-0 -13172-3 0  9996,2 53394  53.2163  40.3283 0000812  89.9386 270.1699 15.08823963 55368,6917.929,95.439,540.356,539.233,0.0
53394.0,STARLINK-4544,PAYLOAD,2023-08-07 18:07:52,15.08849102,7.81e-05,53.2162,35.8677,91.4452,268.663,0.0012564,0.00019769,0.0,0 STARLINK-4544,1 53394U 22097G   23219.75546799  .00019769  00000-0  12564-2 0  9995,2 53394  53.2162  35.8677 0000781  91.4452 268.6630 15.08849102 55517,6917.853,95.437,540.258,539.177,0.0
53394.0,STARLINK-4544,PAYLOAD,2023-08-08 14:47:52,15.08855682,3.58e-05,53.2179,32.0008,87.9705,272.1328,0.00052825,8.133e-05,0.0,0 STARLINK-4544,1 53394U 22097G   23220.61658111  .00008133  00000-0  52825-3 0  9992,2 53394  53.2179  32.0008 0000358  87.9705 272.1328 15.08855682 55641,6917.832,95.437,539.945,539.45,0.0
53394.0,STARLINK-4544,PAYLOAD,2023-08-09 17:49:25,15.08848447,6.67e-05,53.2179,26.944,90.8048,269.302,0.00010608,1.401e-05,0.0,0 STARLINK-4544,1 53394U 22097G   23221.74265755  .00001401  00000-0  10608-3 0  9999,2 53394  53.2179  26.9440 0000667  90.8048 269.3020 15.08848447 55816,6917.855,95.437,540.181,539.258,0.0
53394.0,STARLINK-4544,PAYLOAD,2023-08-10 11:18:40,15.08841895,7.11e-05,53.2174,23.674,91.0786,269.0287,-3.5221e-05,-8.48e-06,0.0,0 STARLINK-4544,1 53394U 22097G   23222.47129881 -.00000848  00000-0 -35221-4 0  9994,2 53394  53.2174  23.6740 0000711  91.0786 269.0287 15.08841895 55924,6917.875,95.437,540.231,539.248,0.0
53394.0,STARLINK-4544,PAYLOAD,2023-08-11 17:30:59,15.08845902,8.9e-05,53.2175,18.0267,102.0356,258.0736,6.6302e-05,7.68e-06,0.0,0 STARLINK-4544,1 53394U 22097G   23223.72985531  .00000768  00000-0  66302-4 0  9998,2 53394  53.2175  18.0267 0000890 102.0356 258.0736 15.08845902 56113,6917.862,95.437,540.343,539.112,0.0
53394.0,STARLINK-4544,PAYLOAD,2023-08-12 03:03:18,15.08838226,6.68e-05,53.2177,16.2427,89.1127,270.9942,0.00012087,1.636e-05,0.0,0 STARLINK-4544,1 53394U 22097G   23224.12729946  .00001636  00000-0  12087-3 0  9994,2 53394  53.2177  16.2427 0000668  89.1127 270.9942 15.08838226 56176,6917.886,95.438,540.213,539.289,0.0
53394.0,STARLINK-4544,PAYLOAD,2023-08-13 02:54:06,15.08834667,0.0001381,53.2159,11.78,73.7541,286.3603,9.3324e-06,-1.39e-06,0.0,0 STARLINK-4544,1 53394U 22097G   23225.12090871 -.00000139  00000-0  93324-5 0  9996,2 53394  53.2159  11.7800 0001381  73.7541 286.3603 15.08834667 56320,6917.897,95.438,540.717,538.806,0.0
53394.0,STARLINK-4544,PAYLOAD,2023-08-13 17:12:34,15.08841914,7.87e-05,53.2182,9.1051,78.74,281.3681,5.6362e-05,6.09e-06,0.0,0 STARLINK-4544,1 53394U 22097G   23225.71706304  .00000609  00000-0  56362-4 0  9997,2 53394  53.2182   9.1051 0000787  78.7400 281.3681 15.08841914 56417,6917.875,95.437,540.284,539.195,0.0
53394.0,STARLINK-4544,PAYLOAD,2023-08-14 02:44:53,15.08822209,8.23e-05,53.2177,7.3222,94.3004,265.8082,0.00039831,6.054e-05,0.0,0 STARLINK-4544,1 53394U 22097G   23226.11451127  .00006054  00000-0  39831-3 0  9993,2 53394  53.2177   7.3222 0000823  94.3004 265.8082 15.08822209 56470,6917.935,95.439,540.369,539.23,0.0
53394.0,STARLINK-4544,PAYLOAD,2023-08-14 09:06:26,15.08829235,9.53e-05,53.2177,6.1327,77.744,282.3658,0.00027832,4.143e-05,0.0,0 STARLINK-4544,1 53394U 22097G   23226.37946768  .00004143  00000-0  27832-3 0  9996,2 53394  53.2177   6.1327 0000953  77.7440 282.3658 15.08829235 56510,6917.913,95.438,540.438,539.119,0.0
53394.0,STARLINK-4544,PAYLOAD,2023-08-14 12:17:10,15.08871083,0.0001266,53.2176,5.5379,66.696,293.4165,-0.00034449,-5.771e-05,0.0,0 STARLINK-4544,1 53394U 22097G   23226.51193262 -.00005771  00000-0 -34449-3 0  9997,2 53394  53.2176   5.5379 0001266  66.6960 293.4165 15.08871083 56537,6917.785,95.436,540.526,538.775,0.0
53394.0,STARLINK-4544,PAYLOAD,2023-08-15 02:35:39,15.08846265,8.55e-05,53.2178,2.8621,70.3539,289.7546,0.00017144,2.442e-05,0.0,0 STARLINK-4544,1 53394U 22097G   23227.10809868  .00002442  00000-0  17144-3 0  9992,2 53394  53.2178   2.8621 0000855  70.3539 289.7546 15.08846265 56621,6917.861,95.437,540.318,539.135,0.0
53394.0,STARLINK-4544,PAYLOAD,2023-08-15 12:07:58,15.08840094,8.5e-05,53.2177,1.078,71.2207,288.8877,0.00012375,1.682e-05,0.0,0 STARLINK-4544,1 53394U 22097G   23227.50554357  .00001682  00000-0  12375-3 0  9992,2 53394  53.2177   1.0780 0000850  71.2207 288.8877 15.08840094 56681,6917.88,95.438,540.333,539.157,0.0
